{
  "type": "FeatureCollection",
  "name": "Turkiye Toplanma Alanlari - DEMO STUB",
  "description": "Bu dosya hackathon demosu icin yaklasik koordinatlarla hazirlanmis ornektir. Gercek toplanma alanlari afad.gov.tr/toplanma-alanlari-listesi adresindeki resmi CSV ile degistirilmelidir.",
  "version": "0.1-stub",
  "lastUpdated": "2026-05-15",
  "features": [
    {
      "type": "Feature",
      "geometry": {"type": "Point", "coordinates": [28.9810, 41.0117]},
      "properties": {
        "id": "ist_001",
        "name": "Gulhane Parki",
        "city": "Istanbul",
        "district": "Fatih",
        "type": "park",
        "capacity": 10000,
        "facilities": ["su", "tuvalet", "elektrik"],
        "isOfficial": true
      }
    },
    {
      "type": "Feature",
      "geometry": {"type": "Point", "coordinates": [28.9905, 41.0469]},
      "properties": {
        "id": "ist_002",
        "name": "Macka Demokrasi Parki",
        "city": "Istanbul",
        "district": "Sisli",
        "type": "park",
        "capacity": 15000,
        "facilities": ["su", "tuvalet"],
        "isOfficial": true
      }
    },
    {
      "type": "Feature",
      "geometry": {"type": "Point", "coordinates": [29.0149, 41.0492]},
      "properties": {
        "id": "ist_003",
        "name": "Yildiz Parki",
        "city": "Istanbul",
        "district": "Besiktas",
        "type": "park",
        "capacity": 20000,
        "facilities": ["su", "tuvalet", "elektrik"],
        "isOfficial": true
      }
    },
    {
      "type": "Feature",
      "geometry": {"type": "Point", "coordinates": [29.1244, 40.9302]},
      "properties": {
        "id": "ist_004",
        "name": "Goztepe 60. Yil Parki",
        "city": "Istanbul",
        "district": "Kadikoy",
        "type": "park",
        "capacity": 8000,
        "facilities": ["su", "tuvalet"],
        "isOfficial": true
      }
    },
    {
      "type": "Feature",
      "geometry": {"type": "Point", "coordinates": [29.1611, 40.9358]},
      "properties": {
        "id": "ist_005",
        "name": "Fenerbahce Parki",
        "city": "Istanbul",
        "district": "Kadikoy",
        "type": "park",
        "capacity": 12000,
        "facilities": ["su", "tuvalet", "elektrik"],
        "isOfficial": true
      }
    },
    {
      "type": "Feature",
      "geometry": {"type": "Point", "coordinates": [29.1306, 40.9356]},
      "properties": {
        "id": "ist_006",
        "name": "Selamicesme Ozgurluk Parki",
        "city": "Istanbul",
        "district": "Kadikoy",
        "type": "park",
        "capacity": 7000,
        "facilities": ["su"],
        "isOfficial": true
      }
    },
    {
      "type": "Feature",
      "geometry": {"type": "Point", "coordinates": [28.6536, 40.9928]},
      "properties": {
        "id": "ist_007",
        "name": "Bahcesehir Golet Parki",
        "city": "Istanbul",
        "district": "Basaksehir",
        "type": "park",
        "capacity": 25000,
        "facilities": ["su", "tuvalet"],
        "isOfficial": true
      }
    },
    {
      "type": "Feature",
      "geometry": {"type": "Point", "coordinates": [32.8541, 39.9208]},
      "properties": {
        "id": "ank_001",
        "name": "Genclik Parki",
        "city": "Ankara",
        "district": "Altindag",
        "type": "park",
        "capacity": 15000,
        "facilities": ["su", "tuvalet", "elektrik"],
        "isOfficial": true
      }
    },
    {
      "type": "Feature",
      "geometry": {"type": "Point", "coordinates": [32.8639, 39.9008]},
      "properties": {
        "id": "ank_002",
        "name": "Kugulu Park",
        "city": "Ankara",
        "district": "Cankaya",
        "type": "park",
        "capacity": 5000,
        "facilities": ["su", "tuvalet"],
        "isOfficial": true
      }
    },
    {
      "type": "Feature",
      "geometry": {"type": "Point", "coordinates": [32.8367, 39.9094]},
      "properties": {
        "id": "ank_003",
        "name": "Sehit Cengiz Topel Parki",
        "city": "Ankara",
        "district": "Cankaya",
        "type": "park",
        "capacity": 6000,
        "facilities": ["su", "tuvalet"],
        "isOfficial": true
      }
    },
    {
      "type": "Feature",
      "geometry": {"type": "Point", "coordinates": [32.8204, 39.9251]},
      "properties": {
        "id": "ank_004",
        "name": "Anittepe Parki",
        "city": "Ankara",
        "district": "Cankaya",
        "type": "park",
        "capacity": 10000,
        "facilities": ["su", "tuvalet"],
        "isOfficial": true
      }
    },
    {
      "type": "Feature",
      "geometry": {"type": "Point", "coordinates": [27.1428, 38.4319]},
      "properties": {
        "id": "izm_001",
        "name": "Kulturpark",
        "city": "Izmir",
        "district": "Konak",
        "type": "park",
        "capacity": 20000,
        "facilities": ["su", "tuvalet", "elektrik"],
        "isOfficial": true
      }
    },
    {
      "type": "Feature",
      "geometry": {"type": "Point", "coordinates": [27.1153, 38.4569]},
      "properties": {
        "id": "izm_002",
        "name": "Bostanli Sahil Parki",
        "city": "Izmir",
        "district": "Karsiyaka",
        "type": "sahil",
        "capacity": 18000,
        "facilities": ["su", "tuvalet"],
        "isOfficial": true
      }
    },
    {
      "type": "Feature",
      "geometry": {"type": "Point", "coordinates": [27.2103, 38.4789]},
      "properties": {
        "id": "izm_003",
        "name": "Bornova Buyuk Park",
        "city": "Izmir",
        "district": "Bornova",
        "type": "park",
        "capacity": 12000,
        "facilities": ["su", "tuvalet"],
        "isOfficial": true
      }
    },
    {
      "type": "Feature",
      "geometry": {"type": "Point", "coordinates": [29.0610, 40.1828]},
      "properties": {
        "id": "brs_001",
        "name": "Soganli Kentsel Donusum Parki",
        "city": "Bursa",
        "district": "Yildirim",
        "type": "park",
        "capacity": 8000,
        "facilities": ["su", "tuvalet"],
        "isOfficial": true
      }
    },
    {
      "type": "Feature",
      "geometry": {"type": "Point", "coordinates": [29.0414, 40.1925]},
      "properties": {
        "id": "brs_002",
        "name": "Bursa Kulturpark",
        "city": "Bursa",
        "district": "Osmangazi",
        "type": "park",
        "capacity": 15000,
        "facilities": ["su", "tuvalet", "elektrik"],
        "isOfficial": true
      }
    },
    {
      "type": "Feature",
      "geometry": {"type": "Point", "coordinates": [35.3214, 37.0017]},
      "properties": {
        "id": "ada_001",
        "name": "Ataturk Parki",
        "city": "Adana",
        "district": "Seyhan",
        "type": "park",
        "capacity": 10000,
        "facilities": ["su", "tuvalet"],
        "isOfficial": true
      }
    },
    {
      "type": "Feature",
      "geometry": {"type": "Point", "coordinates": [35.3325, 37.0042]},
      "properties": {
        "id": "ada_002",
        "name": "Sabanci Merkez Camii Alani",
        "city": "Adana",
        "district": "Seyhan",
        "type": "meydan",
        "capacity": 8000,
        "facilities": ["su"],
        "isOfficial": true
      }
    },
    {
      "type": "Feature",
      "geometry": {"type": "Point", "coordinates": [37.0700, 37.0833]},
      "properties": {
        "id": "gaz_001",
        "name": "Gaziantep 100. Yil Parki",
        "city": "Gaziantep",
        "district": "Sahinbey",
        "type": "park",
        "capacity": 15000,
        "facilities": ["su", "tuvalet"],
        "isOfficial": true
      }
    },
    {
      "type": "Feature",
      "geometry": {"type": "Point", "coordinates": [36.2031, 36.2025]},
      "properties": {
        "id": "hat_001",
        "name": "Antakya Cumhuriyet Meydani",
        "city": "Hatay",
        "district": "Antakya",
        "type": "meydan",
        "capacity": 7000,
        "facilities": [],
        "isOfficial": true
      }
    },
    {
      "type": "Feature",
      "geometry": {"type": "Point", "coordinates": [36.9325, 38.2811]},
      "properties": {
        "id": "kmr_001",
        "name": "Kahramanmaras Trabzon Bulvari Parki",
        "city": "Kahramanmaras",
        "district": "Onikisubat",
        "type": "park",
        "capacity": 9000,
        "facilities": ["su"],
        "isOfficial": true
      }
    },
    {
      "type": "Feature",
      "geometry": {"type": "Point", "coordinates": [39.7167, 41.0050]},
      "properties": {
        "id": "trb_001",
        "name": "Ataturk Alani",
        "city": "Trabzon",
        "district": "Ortahisar",
        "type": "meydan",
        "capacity": 8000,
        "facilities": ["su", "tuvalet"],
        "isOfficial": true
      }
    },
    {
      "type": "Feature",
      "geometry": {"type": "Point", "coordinates": [30.7133, 36.8841]},
      "properties": {
        "id": "ant_001",
        "name": "Karaalioglu Parki",
        "city": "Antalya",
        "district": "Muratpasa",
        "type": "park",
        "capacity": 12000,
        "facilities": ["su", "tuvalet"],
        "isOfficial": true
      }
    },
    {
      "type": "Feature",
      "geometry": {"type": "Point", "coordinates": [29.0667, 41.3550]},
      "properties": {
        "id": "kcl_001",
        "name": "Kocaeli Kentsel Donusum Toplanma Alani",
        "city": "Kocaeli",
        "district": "Izmit",
        "type": "park",
        "capacity": 10000,
        "facilities": ["su", "tuvalet"],
        "isOfficial": true
      }
    },
    {
      "type": "Feature",
      "geometry": {"type": "Point", "coordinates": [37.9167, 38.3500]},
      "properties": {
        "id": "mly_001",
        "name": "Malatya Mishelis Parki",
        "city": "Malatya",
        "district": "Yesilyurt",
        "type": "park",
        "capacity": 9000,
        "facilities": ["su"],
        "isOfficial": true
      }
    },
    {
      "type": "Feature",
      "geometry": {"type": "Point", "coordinates": [27.8732, 39.6505]},
      "properties": {
        "id": "blk_001",
        "name": "Balikesir Ataturk Parki",
        "city": "Balikesir",
        "district": "Altieylul",
        "type": "park",
        "capacity": 12000,
        "facilities": ["su", "tuvalet", "elektrik"],
        "isOfficial": true
      }
    },
    {
      "type": "Feature",
      "geometry": {"type": "Point", "coordinates": [27.8868, 39.6442]},
      "properties": {
        "id": "blk_002",
        "name": "Karesi Camlik Parki",
        "city": "Balikesir",
        "district": "Karesi",
        "type": "park",
        "capacity": 8000,
        "facilities": ["su", "tuvalet"],
        "isOfficial": true
      }
    },
    {
      "type": "Feature",
      "geometry": {"type": "Point", "coordinates": [27.9686, 40.3517]},
      "properties": {
        "id": "blk_003",
        "name": "Bandirma Ataturk Parki",
        "city": "Balikesir",
        "district": "Bandirma",
        "type": "park",
        "capacity": 10000,
        "facilities": ["su", "tuvalet"],
        "isOfficial": true
      }
    },
    {
      "type": "Feature",
      "geometry": {"type": "Point", "coordinates": [27.0182, 39.5984]},
      "properties": {
        "id": "blk_004",
        "name": "Edremit Sahil Parki",
        "city": "Balikesir",
        "district": "Edremit",
        "type": "sahil",
        "capacity": 9000,
        "facilities": ["su"],
        "isOfficial": true
      }
    },
    {
      "type": "Feature",
      "geometry": {"type": "Point", "coordinates": [26.9701, 39.4980]},
      "properties": {
        "id": "blk_005",
        "name": "Burhaniye Sahil Bulvari",
        "city": "Balikesir",
        "district": "Burhaniye",
        "type": "sahil",
        "capacity": 7500,
        "facilities": ["su"],
        "isOfficial": true
      }
    },
    {
      "type": "Feature",
      "geometry": {"type": "Point", "coordinates": [26.6936, 39.3133]},
      "properties": {
        "id": "blk_006",
        "name": "Ayvalik Cumhuriyet Meydani",
        "city": "Balikesir",
        "district": "Ayvalik",
        "type": "meydan",
        "capacity": 9000,
        "facilities": ["su"],
        "isOfficial": true
      }
    },
    {
      "type": "Feature",
      "geometry": {"type": "Point", "coordinates": [27.6510, 40.1052]},
      "properties": {
        "id": "blk_007",
        "name": "Gonen Ataturk Parki",
        "city": "Balikesir",
        "district": "Gonen",
        "type": "park",
        "capacity": 7000,
        "facilities": ["su", "tuvalet"],
        "isOfficial": true
      }
    },
    {
      "type": "Feature",
      "geometry": {"type": "Point", "coordinates": [27.7896, 40.3963]},
      "properties": {
        "id": "blk_008",
        "name": "Erdek Sahil Bulvari",
        "city": "Balikesir",
        "district": "Erdek",
        "type": "sahil",
        "capacity": 8000,
        "facilities": ["su"],
        "isOfficial": true
      }
    },
    {
      "type": "Feature",
      "geometry": {"type": "Point", "coordinates": [28.1556, 39.9133]},
      "properties": {
        "id": "blk_009",
        "name": "Susurluk Cumhuriyet Meydani",
        "city": "Balikesir",
        "district": "Susurluk",
        "type": "meydan",
        "capacity": 6000,
        "facilities": ["su"],
        "isOfficial": true
      }
    },
    {
      "type": "Feature",
      "geometry": {"type": "Point", "coordinates": [28.1306, 39.3933]},
      "properties": {
        "id": "blk_010",
        "name": "Bigadic Belediye Parki",
        "city": "Balikesir",
        "district": "Bigadic",
        "type": "park",
        "capacity": 5000,
        "facilities": ["su"],
        "isOfficial": true
      }
    },
    {
      "type": "Feature",
      "geometry": {"type": "Point", "coordinates": [28.1739, 39.2419]},
      "properties": {
        "id": "blk_011",
        "name": "Sindirgi Ataturk Meydani",
        "city": "Balikesir",
        "district": "Sindirgi",
        "type": "meydan",
        "capacity": 4500,
        "facilities": ["su"],
        "isOfficial": true
      }
    },
    {
      "type": "Feature",
      "geometry": {"type": "Point", "coordinates": [28.6242, 39.5836]},
      "properties": {
        "id": "blk_012",
        "name": "Dursunbey Cumhuriyet Parki",
        "city": "Balikesir",
        "district": "Dursunbey",
        "type": "park",
        "capacity": 5500,
        "facilities": ["su"],
        "isOfficial": true
      }
    },
    {
      "type": "Feature",
      "geometry": {"type": "Point", "coordinates": [27.9669, 40.0489]},
      "properties": {
        "id": "blk_013",
        "name": "Manyas Ataturk Parki",
        "city": "Balikesir",
        "district": "Manyas",
        "type": "park",
        "capacity": 4000,
        "facilities": ["su"],
        "isOfficial": true
      }
    },
    {
      "type": "Feature",
      "geometry": {"type": "Point", "coordinates": [27.0967, 39.5575]},
      "properties": {
        "id": "blk_014",
        "name": "Havran Belediye Meydani",
        "city": "Balikesir",
        "district": "Havran",
        "type": "meydan",
        "capacity": 4000,
        "facilities": ["su"],
        "isOfficial": true
      }
    },
    {
      "type": "Feature",
      "geometry": {"type": "Point", "coordinates": [27.5072, 39.5917]},
      "properties": {
        "id": "blk_015",
        "name": "Ivrindi Sehir Parki",
        "city": "Balikesir",
        "district": "Ivrindi",
        "type": "park",
        "capacity": 3500,
        "facilities": ["su"],
        "isOfficial": true
      }
    },
    {
      "type": "Feature",
      "geometry": {"type": "Point", "coordinates": [27.5739, 40.5808]},
      "properties": {
        "id": "blk_016",
        "name": "Marmara Adasi Sahil",
        "city": "Balikesir",
        "district": "Marmara",
        "type": "sahil",
        "capacity": 3000,
        "facilities": ["su"],
        "isOfficial": true
      }
    },
    {
      "type": "Feature",
      "geometry": {"type": "Point", "coordinates": [28.1500, 39.6919]},
      "properties": {
        "id": "blk_017",
        "name": "Kepsut Belediye Parki",
        "city": "Balikesir",
        "district": "Kepsut",
        "type": "park",
        "capacity": 3500,
        "facilities": ["su"],
        "isOfficial": true
      }
    },
    {
      "type": "Feature",
      "geometry": {"type": "Point", "coordinates": [27.6597, 39.3814]},
      "properties": {
        "id": "blk_018",
        "name": "Savastepe Cumhuriyet Meydani",
        "city": "Balikesir",
        "district": "Savastepe",
        "type": "meydan",
        "capacity": 3500,
        "facilities": ["su"],
        "isOfficial": true
      }
    },
    {
      "type": "Feature",
      "geometry": {"type": "Point", "coordinates": [26.8525, 39.4117]},
      "properties": {
        "id": "blk_019",
        "name": "Gomec Sahil Parki",
        "city": "Balikesir",
        "district": "Gomec",
        "type": "sahil",
        "capacity": 3000,
        "facilities": ["su"],
        "isOfficial": true
      }
    },
    {
      "type": "Feature",
      "geometry": {"type": "Point", "coordinates": [27.5781, 39.7378]},
      "properties": {
        "id": "blk_020",
        "name": "Balya Cumhuriyet Meydani",
        "city": "Balikesir",
        "district": "Balya",
        "type": "meydan",
        "capacity": 2500,
        "facilities": ["su"],
        "isOfficial": true
      }
    }
  ]
}
